2026-027E               
1 67750U 26027E   26046.48045929  .00011037  00000+0  55039-3 0  9997
2 67750  97.4887 175.7423 0008743 290.5442  69.4853 15.17672575   491
2026-027F               
1 67751U 26027F   26046.48037258  .00017891  00000+0  88758-3 0  9992
2 67751  97.4888 175.7426 0009829 288.8883  71.1285 15.17730398   498
2026-027G               
1 67752U 26027G   26046.48028697  .00011348  00000+0  56442-3 0  9996
2 67752  97.4882 175.7421 0009073 292.2623  67.7648 15.17755369   499
2026-027H               
1 67753U 26027H   26046.52867192  .00424991  22840-5  83214-3 0  9994
2 67753  97.5142 176.0194 0274939 327.6421  30.8222 15.57788447   514
2026-027J               
1 67754U 26027J   26046.52595815  .00881289  23204-5  16770-2 0  9999
2 67754  97.5125 176.0244 0264196 327.3941  31.1232 15.60442126   453
CREW DRAGON 12          
1 67796U 26031A   26046.18242609  .00011408  00000+0  21745-3 0  9992
2 67796  51.6317 183.6135 0011047 100.3471 259.8763 15.48615434   265
