CCSDS_OMM_VERS = 2.0
CREATION_DATE  = 
ORIGINATOR     = 

OBJECT_NAME    = 2026-027E
OBJECT_ID      = 2026-027E
CENTER_NAME    = EARTH
REF_FRAME      = TEME
TIME_SYSTEM    = UTC
MEAN_ELEMENT_THEORY = SGP/SGP4

EPOCH          = 2026-02-15T11:31:51.682656
MEAN_MOTION    = 15.17672575
ECCENTRICITY   = .0008743
INCLINATION    = 97.4887
RA_OF_ASC_NODE = 175.7423
ARG_OF_PERICENTER = 290.5442
MEAN_ANOMALY   = 69.4853

EPHEMERIS_TYPE = 0
CLASSIFICATION_TYPE = U
NORAD_CAT_ID   = 67750
ELEMENT_SET_NO = 999
REV_AT_EPOCH   = 49
BSTAR          = .55039E-3
MEAN_MOTION_DOT = .11037E-3
MEAN_MOTION_DDOT = 0

CCSDS_OMM_VERS = 2.0
CREATION_DATE  = 
ORIGINATOR     = 

OBJECT_NAME    = 2026-027F
OBJECT_ID      = 2026-027F
CENTER_NAME    = EARTH
REF_FRAME      = TEME
TIME_SYSTEM    = UTC
MEAN_ELEMENT_THEORY = SGP/SGP4

EPOCH          = 2026-02-15T11:31:44.190912
MEAN_MOTION    = 15.17730398
ECCENTRICITY   = .0009829
INCLINATION    = 97.4888
RA_OF_ASC_NODE = 175.7426
ARG_OF_PERICENTER = 288.8883
MEAN_ANOMALY   = 71.1285

EPHEMERIS_TYPE = 0
CLASSIFICATION_TYPE = U
NORAD_CAT_ID   = 67751
ELEMENT_SET_NO = 999
REV_AT_EPOCH   = 49
BSTAR          = .88758E-3
MEAN_MOTION_DOT = .17891E-3
MEAN_MOTION_DDOT = 0

CCSDS_OMM_VERS = 2.0
CREATION_DATE  = 
ORIGINATOR     = 

OBJECT_NAME    = 2026-027G
OBJECT_ID      = 2026-027G
CENTER_NAME    = EARTH
REF_FRAME      = TEME
TIME_SYSTEM    = UTC
MEAN_ELEMENT_THEORY = SGP/SGP4

EPOCH          = 2026-02-15T11:31:36.794208
MEAN_MOTION    = 15.17755369
ECCENTRICITY   = .0009073
INCLINATION    = 97.4882
RA_OF_ASC_NODE = 175.7421
ARG_OF_PERICENTER = 292.2623
MEAN_ANOMALY   = 67.7648

EPHEMERIS_TYPE = 0
CLASSIFICATION_TYPE = U
NORAD_CAT_ID   = 67752
ELEMENT_SET_NO = 999
REV_AT_EPOCH   = 49
BSTAR          = .56442E-3
MEAN_MOTION_DOT = .11348E-3
MEAN_MOTION_DDOT = 0

CCSDS_OMM_VERS = 2.0
CREATION_DATE  = 
ORIGINATOR     = 

OBJECT_NAME    = 2026-027H
OBJECT_ID      = 2026-027H
CENTER_NAME    = EARTH
REF_FRAME      = TEME
TIME_SYSTEM    = UTC
MEAN_ELEMENT_THEORY = SGP/SGP4

EPOCH          = 2026-02-15T12:41:17.253888
MEAN_MOTION    = 15.57788447
ECCENTRICITY   = .0274939
INCLINATION    = 97.5142
RA_OF_ASC_NODE = 176.0194
ARG_OF_PERICENTER = 327.6421
MEAN_ANOMALY   = 30.8222

EPHEMERIS_TYPE = 0
CLASSIFICATION_TYPE = U
NORAD_CAT_ID   = 67753
ELEMENT_SET_NO = 999
REV_AT_EPOCH   = 51
BSTAR          = .83214E-3
MEAN_MOTION_DOT = .424991E-2
MEAN_MOTION_DDOT = .2284E-5

CCSDS_OMM_VERS = 2.0
CREATION_DATE  = 
ORIGINATOR     = 

OBJECT_NAME    = 2026-027J
OBJECT_ID      = 2026-027J
CENTER_NAME    = EARTH
REF_FRAME      = TEME
TIME_SYSTEM    = UTC
MEAN_ELEMENT_THEORY = SGP/SGP4

EPOCH          = 2026-02-15T12:37:22.784160
MEAN_MOTION    = 15.60442126
ECCENTRICITY   = .0264196
INCLINATION    = 97.5125
RA_OF_ASC_NODE = 176.0244
ARG_OF_PERICENTER = 327.3941
MEAN_ANOMALY   = 31.1232

EPHEMERIS_TYPE = 0
CLASSIFICATION_TYPE = U
NORAD_CAT_ID   = 67754
ELEMENT_SET_NO = 999
REV_AT_EPOCH   = 45
BSTAR          = .1677E-2
MEAN_MOTION_DOT = .881289E-2
MEAN_MOTION_DDOT = .23204E-5

CCSDS_OMM_VERS = 2.0
CREATION_DATE  = 
ORIGINATOR     = 

OBJECT_NAME    = CREW DRAGON 12
OBJECT_ID      = 2026-031A
CENTER_NAME    = EARTH
REF_FRAME      = TEME
TIME_SYSTEM    = UTC
MEAN_ELEMENT_THEORY = SGP/SGP4

EPOCH          = 2026-02-15T04:22:41.614176
MEAN_MOTION    = 15.48615434
ECCENTRICITY   = .00110479
INCLINATION    = 51.6317
RA_OF_ASC_NODE = 183.6135
ARG_OF_PERICENTER = 100.3471
MEAN_ANOMALY   = 259.8763

EPHEMERIS_TYPE = 0
CLASSIFICATION_TYPE = U
NORAD_CAT_ID   = 67796
ELEMENT_SET_NO = 999
REV_AT_EPOCH   = 26
BSTAR          = .21745046E-3
MEAN_MOTION_DOT = .11408E-3
MEAN_MOTION_DDOT = 0

